{
  "type": "FeatureCollection",
  "features": [
    {
      "type": "Feature",
      "properties": {
        "norad_id": 34833,
        "name": "IRIDIUM 33 DEB",
        "group": "iridium-33-debris",
        "lat": 65.54562666296437,
        "lon": -142.33643487601165,
        "alt_km": 702.4743273071872,
        "timestamp": "2025-12-25T03:55:56.751882+00:00",
        "meta_object_name": "IRIDIUM 33 DEB",
        "meta_object_id": "1997-051MH",
        "meta_epoch": "2025-12-24T02:45:06.846048",
        "meta_mean_motion": 14.52439101,
        "meta_eccentricity": 0.00212786,
        "meta_inclination": 86.392,
        "meta_ra_of_asc_node": 46.091,
        "meta_arg_of_pericenter": 63.6872,
        "meta_mean_anomaly": 327.8102,
        "meta_ephemeris_type": 0,
        "meta_classification_type": "U",
        "meta_norad_cat_id": 34833,
        "meta_element_set_no": 999,
        "meta_rev_at_epoch": 87880,
        "meta_bstar": 0.00070605352,
        "meta_mean_motion_dot": 2.906e-05,
        "meta_mean_motion_ddot": 0,
        "tle_line1": "1 34833U 97051MH  25358.11466257  .00002906  00000+0  70605-3 0  9995",
        "tle_line2": "2 34833  86.3920  46.0910 0021278  63.6872 327.8102 14.52439101878807"
      },
      "geometry": {
        "type": "Point",
        "coordinates": [
          -142.33643487601165,
          65.54562666296437
        ]
      }
    },
    {
      "type": "Feature",
      "properties": {
        "norad_id": 34870,
        "name": "IRIDIUM 33 DEB",
        "group": "iridium-33-debris",
        "lat": 82.68149063328669,
        "lon": -21.456598901080845,
        "alt_km": 625.3150519978817,
        "timestamp": "2025-12-25T03:55:56.751900+00:00",
        "meta_object_name": "IRIDIUM 33 DEB",
        "meta_object_id": "1997-051MQ",
        "meta_epoch": "2025-12-23T08:19:45.742080",
        "meta_mean_motion": 14.76622779,
        "meta_eccentricity": 0.00178135,
        "meta_inclination": 86.3116,
        "meta_ra_of_asc_node": 309.2251,
        "meta_arg_of_pericenter": 145.0656,
        "meta_mean_anomaly": 7.2154,
        "meta_ephemeris_type": 0,
        "meta_classification_type": "U",
        "meta_norad_cat_id": 34870,
        "meta_element_set_no": 999,
        "meta_rev_at_epoch": 89067,
        "meta_bstar": 0.001482504,
        "meta_mean_motion_dot": 0.0001041,
        "meta_mean_motion_ddot": 0,
        "tle_line1": "1 34870U 97051MQ  25357.34705720  .00010410  00000+0  14825-2 0  9991",
        "tle_line2": "2 34870  86.3116 309.2251 0017813 145.0656   7.2154 14.76622779890678"
      },
      "geometry": {
        "type": "Point",
        "coordinates": [
          -21.456598901080845,
          82.68149063328669
        ]
      }
    },
    {
      "type": "Feature",
      "properties": {
        "norad_id": 34896,
        "name": "IRIDIUM 33 DEB",
        "group": "iridium-33-debris",
        "lat": -9.153136404040005,
        "lon": 141.70498670542054,
        "alt_km": 659.6400419748506,
        "timestamp": "2025-12-25T03:55:56.751923+00:00",
        "meta_object_name": "IRIDIUM 33 DEB",
        "meta_object_id": "1997-051MY",
        "meta_epoch": "2025-12-24T04:12:44.288640",
        "meta_mean_motion": 14.66381715,
        "meta_eccentricity": 0.00257287,
        "meta_inclination": 86.3299,
        "meta_ra_of_asc_node": 321.5555,
        "meta_arg_of_pericenter": 173.6101,
        "meta_mean_anomaly": 201.3064,
        "meta_ephemeris_type": 0,
        "meta_classification_type": "U",
        "meta_norad_cat_id": 34896,
        "meta_element_set_no": 999,
        "meta_rev_at_epoch": 87787,
        "meta_bstar": 0.00093038371,
        "meta_mean_motion_dot": 5.188e-05,
        "meta_mean_motion_ddot": 0,
        "tle_line1": "1 34896U 97051MY  25358.17551260  .00005188  00000+0  93038-3 0  9999",
        "tle_line2": "2 34896  86.3299 321.5555 0025728 173.6101 201.3064 14.66381715877873"
      },
      "geometry": {
        "type": "Point",
        "coordinates": [
          141.70498670542054,
          -9.153136404040005
        ]
      }
    },
    {
      "type": "Feature",
      "properties": {
        "norad_id": 34926,
        "name": "IRIDIUM 33 DEB",
        "group": "iridium-33-debris",
        "lat": 64.75114439589345,
        "lon": 174.26112914472716,
        "alt_km": 740.3799654119521,
        "timestamp": "2025-12-25T03:55:56.751941+00:00",
        "meta_object_name": "IRIDIUM 33 DEB",
        "meta_object_id": "1997-051NF",
        "meta_epoch": "2025-12-22T01:22:31.159776",
        "meta_mean_motion": 14.5480682,
        "meta_eccentricity": 0.00744191,
        "meta_inclination": 86.1317,
        "meta_ra_of_asc_node": 3.9511,
        "meta_arg_of_pericenter": 260.4851,
        "meta_mean_anomaly": 154.6666,
        "meta_ephemeris_type": 0,
        "meta_classification_type": "U",
        "meta_norad_cat_id": 34926,
        "meta_element_set_no": 999,
        "meta_rev_at_epoch": 86592,
        "meta_bstar": 0.0057923661,
        "meta_mean_motion_dot": 0.00025863,
        "meta_mean_motion_ddot": 0,
        "tle_line1": "1 34926U 97051NF  25356.05730509  .00025863  00000+0  57924-2 0  9998",
        "tle_line2": "2 34926  86.1317   3.9511 0074419 260.4851 154.6666 14.54806820865924"
      },
      "geometry": {
        "type": "Point",
        "coordinates": [
          174.26112914472716,
          64.75114439589345
        ]
      }
    },
    {
      "type": "Feature",
      "properties": {
        "norad_id": 34985,
        "name": "IRIDIUM 33 DEB",
        "group": "iridium-33-debris",
        "lat": 34.91966801590954,
        "lon": 54.12001095414912,
        "alt_km": 762.0187043601663,
        "timestamp": "2025-12-25T03:55:56.751958+00:00",
        "meta_object_name": "IRIDIUM 33 DEB",
        "meta_object_id": "1997-051NR",
        "meta_epoch": "2025-12-24T02:55:34.002912",
        "meta_mean_motion": 14.42055036,
        "meta_eccentricity": 0.00219831,
        "meta_inclination": 86.3683,
        "meta_ra_of_asc_node": 52.0233,
        "meta_arg_of_pericenter": 181.7757,
        "meta_mean_anomaly": 207.8288,
        "meta_ephemeris_type": 0,
        "meta_classification_type": "U",
        "meta_norad_cat_id": 34985,
        "meta_element_set_no": 999,
        "meta_rev_at_epoch": 87339,
        "meta_bstar": 0.0006443883,
        "meta_mean_motion_dot": 2.141e-05,
        "meta_mean_motion_ddot": 0,
        "tle_line1": "1 34985U 97051NR  25358.12192133  .00002141  00000+0  64439-3 0  9992",
        "tle_line2": "2 34985  86.3683  52.0233 0021983 181.7757 207.8288 14.42055036873394"
      },
      "geometry": {
        "type": "Point",
        "coordinates": [
          54.12001095414912,
          34.91966801590954
        ]
      }
    },
    {
      "type": "Feature",
      "properties": {
        "norad_id": 35051,
        "name": "IRIDIUM 33 DEB",
        "group": "iridium-33-debris",
        "lat": -37.67337310819307,
        "lon": -173.70763444497086,
        "alt_km": 746.8035319624914,
        "timestamp": "2025-12-25T03:55:56.751974+00:00",
        "meta_object_name": "IRIDIUM 33 DEB",
        "meta_object_id": "1997-051NX",
        "meta_epoch": "2025-12-22T18:31:37.744896",
        "meta_mean_motion": 14.47639956,
        "meta_eccentricity": 0.0010302,
        "meta_inclination": 86.324,
        "meta_ra_of_asc_node": 4.4893,
        "meta_arg_of_pericenter": 63.2582,
        "meta_mean_anomaly": 296.9674,
        "meta_ephemeris_type": 0,
        "meta_classification_type": "U",
        "meta_norad_cat_id": 35051,
        "meta_element_set_no": 999,
        "meta_rev_at_epoch": 87141,
        "meta_bstar": 0.00060447572,
        "meta_mean_motion_dot": 2.248e-05,
        "meta_mean_motion_ddot": 0,
        "tle_line1": "1 35051U 97051NX  25356.77196464  .00002248  00000+0  60448-3 0  9991",
        "tle_line2": "2 35051  86.3240   4.4893 0010302  63.2582 296.9674 14.47639956871417"
      },
      "geometry": {
        "type": "Point",
        "coordinates": [
          -173.70763444497086,
          -37.67337310819307
        ]
      }
    },
    {
      "type": "Feature",
      "properties": {
        "norad_id": 35052,
        "name": "IRIDIUM 33 DEB",
        "group": "iridium-33-debris",
        "lat": -40.906250960614905,
        "lon": 11.961111137104085,
        "alt_km": 770.143617289069,
        "timestamp": "2025-12-25T03:55:56.751990+00:00",
        "meta_object_name": "IRIDIUM 33 DEB",
        "meta_object_id": "1997-051NY",
        "meta_epoch": "2025-12-23T18:44:00.353760",
        "meta_mean_motion": 14.38504324,
        "meta_eccentricity": 0.00131737,
        "meta_inclination": 86.33,
        "meta_ra_of_asc_node": 15.7419,
        "meta_arg_of_pericenter": 54.1122,
        "meta_mean_anomaly": 306.1297,
        "meta_ephemeris_type": 0,
        "meta_classification_type": "U",
        "meta_norad_cat_id": 35052,
        "meta_element_set_no": 999,
        "meta_rev_at_epoch": 87434,
        "meta_bstar": 0.00016915934,
        "meta_mean_motion_dot": 5.37e-06,
        "meta_mean_motion_ddot": 0,
        "tle_line1": "1 35052U 97051NY  25357.78055965  .00000537  00000+0  16916-3 0  9994",
        "tle_line2": "2 35052  86.3300  15.7419 0013173  54.1122 306.1297 14.38504324874342"
      },
      "geometry": {
        "type": "Point",
        "coordinates": [
          11.961111137104085,
          -40.906250960614905
        ]
      }
    }
  ]
}